IRIDIUM 57              
1 25273U 98019B   24320.49100343  .00000879  00000+0  29847-3 0  9997
2 25273  86.3987 234.7113 0002323  82.6766 277.4695 14.35581048394126
IRIDIUM 63              
1 25286U 98021B   24320.59300080  .00000905  00000+0  30383-3 0  9992
2 25286  86.4016 171.6653 0001865  86.7194 273.4216 14.36186979393187
IRIDIUM 69              
1 25319U 98026A   24320.49091246  .00001121  00000+0  34606-3 0  9997
2 25319  86.4023 185.6209 0003533  42.9268 317.2207 14.40527376392297
IRIDIUM 71              
1 25320U 98026B   24320.52949997  .00000986  00000+0  30236-3 0  9991
2 25320  86.4018 180.3417 0004187  77.8113 282.3555 14.40768795392827
IRIDIUM 73              
1 25344U 98032C   24320.48535994  .00001535  00000+0  38209-3 0  9996
2 25344  86.4404 137.5575 0002179  69.2556 290.8882 14.51133521399566
IRIDIUM 82              
1 25467U 98051A   24320.44798370  .00033294  00000+0  13582-2 0  9991
2 25467  86.3774 213.5971 0112109  22.7695 337.8462 15.18592843391376
